[{"OBJECT_NAME":"OBJECT P","OBJECT_ID":"2025-155P","EPOCH":"2026-03-09T22:15:55.475424","MEAN_MOTION":15.2544775,"ECCENTRICITY":0.00080527,"INCLINATION":97.4496,"RA_OF_ASC_NODE":37.0295,"ARG_OF_PERICENTER":153.0691,"MEAN_ANOMALY":207.0966,"EPHEMERIS_TYPE":0,"CLASSIFICATION_TYPE":"U","NORAD_CAT_ID":64889,"ELEMENT_SET_NO":999,"REV_AT_EPOCH":6557,"BSTAR":0.00031377111,"MEAN_MOTION_DOT":7.871e-5,"MEAN_MOTION_DDOT":0},{"OBJECT_NAME":"STARLINK-35930","OBJECT_ID":"2025-270M","EPOCH":"2026-03-09T00:25:50.755584","MEAN_MOTION":15.27617096,"ECCENTRICITY":0.00024815,"INCLINATION":43.0035,"RA_OF_ASC_NODE":59.9242,"ARG_OF_PERICENTER":292.8143,"MEAN_ANOMALY":67.2446,"EPHEMERIS_TYPE":0,"CLASSIFICATION_TYPE":"U","NORAD_CAT_ID":66599,"ELEMENT_SET_NO":999,"REV_AT_EPOCH":1760,"BSTAR":0.001451001,"MEAN_MOTION_DOT":0.0003993,"MEAN_MOTION_DDOT":0}]
